STARLINK-30995          
1 58474U 23186B   23364.91667824  .00037074  00000+0  14215-2 0  9994
2 58474  42.9999 103.1665 0001062 281.7816 229.2930 15.25875279  5380
STARLINK-30941          
1 58475U 23186C   23364.91667824  .00038277  00000+0  14673-2 0  9999
2 58475  43.0001 103.1358 0001404 272.5235 251.0148 15.25869930  5414
STARLINK-30980          
1 58476U 23186D   23364.91667824  .00036328  00000+0  13932-2 0  9992
2 58476  43.0000 103.1059 0001789 288.3680 247.5882 15.25875480  5464
STARLINK-30965          
1 58477U 23186E   23364.91667824 -.01763117  00000+0 -26141-1 0  9994
2 58477  42.9999  98.9226 0001860 275.7654 160.6846 15.57528762  5466
STARLINK-30990          
1 58478U 23186F   23364.91667824  .00039376  00000+0  15103-2 0  9992
2 58478  43.0002 103.0750 0001457 267.8818 280.6023 15.25839165  5568
STARLINK-30974          
1 58479U 23186G   23364.91667824 -.00194583  21112-4 -47684-3 0  9999
2 58479  42.9982  96.4724 0001732 300.3519  31.1355 15.94924556  5648
STARLINK-30984          
1 58480U 23186H   23364.91667824 -.00023703  00000+0 -89732-3 0  9994
2 58480  43.0002 102.6498 0002637 276.7380  85.7269 15.25975464  5467
STARLINK-30956          
1 58481U 23186J   23364.70285812 -.00022150  00000+0 -17344-3 0  9990
2 58481  42.9994 100.9786 0001767 262.4153  97.6514 15.70305882  5433
STARLINK-30997          
1 58482U 23186K   23364.91667824 -.00054039  00000+0 -97631-3 0  9999
2 58482  43.0005 101.9417 0001437 274.1860  23.0565 15.48956232  5479
STARLINK-30994          
1 58483U 23186L   23362.75020063  .00087772  00000+0  10565-2 0  9996
2 58483  43.0020 113.8967 0001270 260.8666  99.2054 15.59830549  5012
STARLINK-30991          
1 58484U 23186M   23364.91667824 -.00050578  00000+0 -19318-2 0  9990
2 58484  43.0004 102.6200 0002043 301.4791  73.4413 15.25996498  5462
STARLINK-30979          
1 58485U 23186N   23364.91667824 -.00035480  00000+0 -13527-2 0  9992
2 58485  43.0004 103.0143 0001933 269.3097 303.9958 15.25916316  5468
STARLINK-31005          
1 58486U 23186P   23364.91667824  .00032116  00000+0  12335-2 0  9990
2 58486  43.0003 102.9832 0001888 277.0220 308.6814 15.25875626  5465
STARLINK-30987          
1 58487U 23186Q   23364.91667824 -.00113223  00000+0 -43776-2 0  9995
2 58487  43.0000 102.9531 0001357 266.4933 331.6892 15.25967794  5384
STARLINK-31000          
1 58488U 23186R   23364.91667824 -.00038153  00000+0 -14542-2 0  9993
2 58488  43.0001 102.9225 0001809 258.2036 352.4097 15.25955497  5410
STARLINK-30993          
1 58489U 23186S   23364.91667824 -.00018669  00000+0 -70560-3 0  9997
2 58489  43.0002 102.8920 0001291 248.9599  14.1543 15.25913074  5387
STARLINK-30978          
1 58490U 23186T   23364.91667824 -.00004706  00000+0 -17010-3 0  9997
2 58490  43.0001 102.8620 0001705 265.8476   9.6530 15.25922823  5418
STARLINK-30953          
1 58491U 23186U   23364.73498832  .00001416  00000+0  31650-4 0  9999
2 58491  43.0003 103.0054 0001552 263.8956  96.1726 15.48907798  5570
STARLINK-30986          
1 58492U 23186V   23364.91667824  .00031787  00000+0  12197-2 0  9996
2 58492  43.0000 102.7726 0001296 275.2235  37.5949 15.25911750  5385
STARLINK-30985          
1 58493U 23186W   23364.91667824  .00009436  00000+0  37007-3 0  9991
2 58493  43.0001 102.7426 0001538 272.6049  52.6248 15.25912904  5389
STARLINK-30981          
1 58494U 23186X   23364.91667824  .00025856  00000+0  99568-3 0  9996
2 58494  43.0002 102.7125 0002242 297.4530  40.1408 15.25879577  5388
STARLINK-31002          
1 58495U 23186Y   23364.91667824 -.00097349  00000+0 -37568-2 0  9996
2 58495  43.0002 102.6822 0001231 272.0635  78.0963 15.25946973  5677
2023-187A               
1 58496U 23187A   23364.88494694  .00002407  00000+0  33636-3 0  9999
2 58496  98.0054  76.8430 0012657 181.5223 178.5952 14.78505506  3945
2023-187B               
1 58497U 23187B   23364.88888040  .00001660  00000+0  23567-3 0  9994
2 58497  98.0074  76.8427 0012324 178.4312 181.6940 14.78262801  3938
2023-187C               
1 58498U 23187C   23364.88605809  .00002381  00000+0  33331-3 0  9996
2 58498  98.0060  76.8430 0012433 180.1061 180.0150 14.78451193  3930
2023-187D               
1 58499U 23187D   23364.87586444  .00001792  00000+0  20677-3 0  9993
2 58499  98.1435  77.7886 0037843 267.4767  92.2115 14.86490257  3957
DOORY-SAT               
1 58500U 23188A   23364.87156763  .00001880  00000+0  30375-3 0  9998
2 58500  46.9844   1.5144 0007446  90.1820 269.9926 14.75214403  3930
TLV R/B                 
1 58501U 23188B   23364.46419071  .00004869  00000+0  23473-3 0  9999
2 58501  46.9180 356.2092 0161329 137.6773 223.6710 15.09574688  3953
2023-189A               
1 58502U 23189A   23364.94713293  .00003546  00000+0  16258-3 0  9991
2 58502  97.4637   7.4411 0013956 188.5281 171.5719 15.21027662  3941
2023-189B               
1 58503U 23189B   23364.94092196  .00007821  00000+0  34936-3 0  9997
2 58503  97.4640   7.4498 0014059 191.8421 168.2486 15.21535174  3945
2023-189C               
1 58504U 23189C   23364.91852462  .00023901  00000+0  10009-2 0  9996
2 58504  97.4632   7.4782 0017375 198.5905 161.4699 15.23404564  3949
2023-190A               
1 58505U 23190A   23364.89598053  .00000148  00000+0  97930-4 0  9997
2 58505  86.5024 288.6459 0009367 201.9333 158.1441 13.94378169  3499
2023-190B               
1 58506U 23190B   23364.90664215  .00034545  00000+0  12434-2 0  9996
2 58506  86.5858 287.5355 0388698 286.5032  69.3824 14.78863112  3702
2023-190C               
1 58507U 23190C   23364.91738809  .00015984  00000+0  58243-3 0  9994
2 58507  86.5860 287.5405 0393882 286.5494  69.2812 14.77547254  3661
STARLINK-31026          
1 58508U 23191A   23364.91667824 -.02164190  00000+0 -77082-1 0  9992
2 58508  43.0007 146.9480 0001285 274.8723 167.2116 15.31745984  5043
STARLINK-31020          
1 58509U 23191B   23364.91667824 -.02163359  00000+0 -78663-1 0  9995
2 58509  43.0007 146.9711 0001347 278.3743 154.0447 15.31087616  4929
STARLINK-30989          
1 58510U 23191C   23364.91667824 -.02161781  00000+0 -75403-1 0  9993
2 58510  43.0007 146.9238 0001367 279.7984 171.6201 15.32402108  5044
STARLINK-30968          
1 58511U 23191D   23364.91667824 -.02162077  00000+0 -73845-1 0  9991
2 58511  43.0008 146.9020 0001765 279.1240 181.2948 15.33060679  4987
STARLINK-30982          
1 58512U 23191E   23364.91667824 -.02160714  00000+0 -72263-1 0  9991
2 58512  43.0006 146.8813 0001712 276.3226 192.7659 15.33717818  4924
STARLINK-30998          
1 58513U 23191F   23364.91667824 -.02165075  00000+0 -71018-1 0  9994
2 58513  43.0006 146.8605 0001650 280.1063 197.6285 15.34330791  5042
STARLINK-30983          
1 58514U 23191G   23364.91667824 -.02171391  00000+0 -59172-1 0  9990
2 58514  43.0008 146.4964 0001485 264.2350   5.5324 15.40010781  4600
STARLINK-31017          
1 58515U 23191H   23364.85352522  .00083340  00000+0  92571-3 0  9994
2 58515  43.0009 145.7603 0001635 288.8673  71.2014 15.61937673  4967
STARLINK-31028          
1 58516U 23191J   23364.91667824 -.02166348  00000+0 -68221-1 0  9993
2 58516  43.0007 146.8206 0001437 280.1070 213.7122 15.35599395  4984
STARLINK-31011          
1 58517U 23191K   23364.91667824 -.02164692  00000+0 -69632-1 0  9991
2 58517  43.0007 146.8393 0001324 280.3741 205.7238 15.34940109  5043
STARLINK-31021          
1 58518U 23191L   23364.91667824 -.02169369  00000+0 -57069-1 0  9999
2 58518  43.0007 146.1186 0001779 277.3267 142.4192 15.41059308  5046
STARLINK-31010          
1 58519U 23191M   23364.91667824 -.02137666  00000+0 -53239-1 0  9990
2 58519  43.0008 145.5638 0001618 266.2131  15.7049 15.43207295  4989
STARLINK-31003          
1 58520U 23191N   23364.91667824 -.02166480  00000+0 -66995-1 0  9991
2 58520  43.0007 146.8006 0001326 276.3198 225.6443 15.36161653  5063
STARLINK-31015          
1 58521U 23191P   23364.91667824 -.02167929  00000+0 -65620-1 0  9995
2 58521  43.0008 146.7830 0001423 274.6146 234.4556 15.36820686  4982
STARLINK-31023          
1 58522U 23191Q   23364.91667824 -.02166042  00000+0 -64165-1 0  9994
2 58522  43.0009 146.7658 0001353 284.4311 231.4144 15.37477429  5050
STARLINK-30932          
1 58523U 23191R   23364.91667824 -.02168886  00000+0 -62883-1 0  9998
2 58523  43.0008 146.7509 0001288 276.3069 245.9811 15.38136962  4978
STARLINK-30992          
1 58524U 23191S   23364.91667824 -.02169197  00000+0 -61542-1 0  9996
2 58524  43.0009 146.7360 0001303 271.0315 257.3673 15.38795219  4877
STARLINK-30948          
1 58525U 23191T   23364.91667824 -.02172029  00000+0 -60303-1 0  9999
2 58525  43.0008 146.7220 0001117 273.0548 261.1233 15.39454412  5048
STARLINK-31013          
1 58526U 23191U   23364.91667824 -.02174827  00000+0 -59077-1 0  9994
2 58526  43.0007 146.7085 0001215 271.8974 267.7274 15.40113892  4980
STARLINK-31001          
1 58527U 23191V   23364.91667824 -.02144108  00000+0 -44696-1 0  9995
2 58527  43.0007 144.9226 0001237 272.6165 267.0719 15.48343276  4877
STARLINK-31004          
1 58528U 23191W   23364.91667824 -.02172317  00000+0 -57813-1 0  9994
2 58528  43.0007 146.6948 0001217 273.8713 271.4125 15.40722674  5032
STARLINK-30988          
1 58529U 23191X   23364.91667824 -.02173232  00000+0 -56573-1 0  9994
2 58529  43.0009 146.6833 0001382 274.1150 275.9759 15.41381278  4493
STARLINK-31009          
1 58530U 23191Y   23364.91667824 -.02135633  00000+0 -55341-1 0  9991
2 58530  43.0007 146.6728 0001290 273.0581 281.5087 15.42039238  5046
STARLINK-31012          
1 58531U 23192A   23364.91667824 -.02058520  00000+0 -58448-1 0  9993
2 58531  53.1600 175.7803 0000746  91.9476 228.7325 15.39390958  4806
